INTELSAT 902 (IS-902)   
1 26900U 01039A   26189.48957002 -.00000273  00000+0  00000+0 0  9992
2 26900   6.1695  71.5227 0004417  32.5371 308.5168  1.00272183 90900
INTELSAT 904 (IS-904)   
1 27380U 02007A   26189.42201328 -.00000216  00000+0  00000+0 0  9995
2 27380   6.9697  68.9266 0005581  21.4070 316.4939  1.00272618 51973
DIRECTV 5 (TEMPO 1)     
1 27426U 02023A   26189.33513638 -.00000046  00000+0  00000+0 0  9995
2 27426   4.9285  75.0465 0003100  35.2041 186.5828  1.00271080 88336
INTELSAT 905 (IS-905)   
1 27438U 02027A   26189.44698097  .00000103  00000+0  00000+0 0  9990
2 27438   6.8036  69.5408 0003660  42.4921 198.0803  1.00272282 51579
GALAXY 3C (G-3C)        
1 27445U 02030A   26189.55208753 -.00000141  00000+0  00000+0 0  9993
2 27445   3.7852  77.6997 0001624  36.9315 275.7995  1.00271059 46700
INTELSAT 906 (IS-906)   
1 27513U 02041A   26189.22710369  .00000024  00000+0  00000+0 0  9995
2 27513   5.8545  72.6626 0003997  16.4192 342.9854  1.00271719 87230
GALAXY 13 (HORIZONS-1)  
1 27954U 03044A   26189.55947778  .00000146  00000+0  00000+0 0  9995
2 27954   1.4732  83.5921 0001764  24.6425 229.7007  1.00274967 46783
INTELSAT 10-02          
1 28358U 04022A   26189.42764663  .00000003  00000+0  00000+0 0  9999
2 28358   0.0465 261.5797 0000276 358.5008 179.2480  1.00267189 80760
DIRECTV 8               
1 28659U 05019A   26189.54723417  .00000016  00000+0  00000+0 0  9999
2 28659   0.0168  53.6448 0003119  67.4872 243.3236  1.00271900 77282
GALAXY 28 (G-28)        
1 28702U 05022A   26189.49390338 -.00000188  00000+0  00000+0 0  9999
2 28702   3.3501  78.6751 0002133  28.6043 329.8736  1.00270525 52185
GALAXY 16 (G-16)        
1 29236U 06023A   26189.55122086 -.00000112  00000+0  00000+0 0  9991
2 29236   0.0315 126.0305 0002531 346.5995 273.3096  1.00271816 73187
DIRECTV 9S              
1 29494U 06043A   26189.55078752 -.00000100  00000+0  00000+0 0  9996
2 29494   2.4726  80.6473 0005101  30.1880 272.7510  1.00271013 51595
GALAXY 17 (G-17)        
1 31307U 07016B   26189.55399420 -.00000194  00000+0  00000+0 0  9994
2 31307   3.0224  79.6325 0003665  28.4332 292.8560  1.00271811 70012
INTELSAT 11 (IS-11)     
1 32253U 07044B   26189.50586344  .00000018  00000+0  00000+0 0  9998
2 32253   3.6175  78.4128 0003884  97.1073 325.0374  0.99049813 68662
HORIZONS-2              
1 32388U 07063B   26189.55616088 -.00000241  00000+0  00000+0 0  9991
2 32388   2.6539  80.3663 0003712  15.1764 317.3921  1.00271665 68024
DIRECTV 11              
1 32729U 08013A   26189.55113419 -.00000110  00000+0  00000+0 0  9991
2 32729   0.0398 210.9141 0000183 212.8214 321.9872  1.00268541 45801
GALAXY 18 (G-18)        
1 32951U 08024A   26189.54645417  .00000040  00000+0  00000+0 0  9998
2 32951   0.0161 345.1661 0002893 133.0998 241.9662  1.00272967 46061
GALAXY 19 (G-19)        
1 33376U 08045A   26189.55156752 -.00000125  00000+0  00000+0 0  9998
2 33376   0.0563 253.7302 0002474 219.1755 275.1435  1.00273477 65118
FM-5                    
1 35493U 09034A   26189.55373420 -.00000185  00000+0  00000+0 0  9998
2 35493   0.0383 269.8296 0000961  64.9764  64.8737  1.00269466 46856
INTELSAT 14 (IS-14)     
1 36097U 09064A   26189.41932660 -.00000259  00000+0  00000+0 0  9996
2 36097   0.0045  62.0481 0002262  55.4227 274.8713  1.00270532 60811
INTELSAT 15 (IS-15)     
1 36106U 09067A   26189.58766902 -.00000170  00000+0  00000+0 0  9994
2 36106   0.0167  32.0749 0002205  81.3533 109.8205  1.00270891 41445
DIRECTV 12              
1 36131U 09075A   26189.55044086 -.00000088  00000+0  00000+0 0  9998
2 36131   0.0419 201.8453 0000171  50.6323 129.4510  1.00267685 46761
INTELSAT 16 (IS-16)     
1 36397U 10006A   26189.55572755 -.00000230  00000+0  00000+0 0  9996
2 36397   0.0102 333.2337 0002288 155.6155 281.5153  1.00271992 59869
XM-5                    
1 37185U 10053A   26189.54801418 -.00000008  00000+0  00000+0 0  9997
2 37185   0.0624 268.3398 0001837 309.8514 150.3954  1.00270805 57693
INTELSAT 17 (IS-17)     
1 37238U 10065B   26189.51262346  .00000013  00000+0  00000+0 0  9992
2 37238   0.0111  81.3732 0002619  31.6049  64.0225  1.00272753 53467
INTELSAT 28 (IS-28)     
1 37392U 11016A   26189.42192661 -.00000211  00000+0  00000+0 0  9993
2 37392   1.8579  82.3644 0003765  34.4907 289.6814  1.00272990 53490
INTELSAT 18 (IS-18)     
1 37834U 11056A   26189.60392277  .00000067  00000+0  00000+0 0  9991
2 37834   0.0152   5.6247 0001756 118.6179 199.7152  1.00271577 54026
INTELSAT 22 (IS-22)     
1 38098U 12011A   26189.58506900  .00000000  00000+0  00000+0 0  9990
2 38098   0.0308  60.1127 0001862  70.8066  78.3227  1.00270975  7403
INTELSAT 19 (IS-19)     
1 38356U 12030A   26189.59281014 -.00000042  00000+0  00000+0 0  9992
2 38356   0.0106  38.1983 0003169  81.7686 185.9889  1.00271701 50665
INTELSAT 20 (IS-20)     
1 38740U 12043A   26189.44177337 -.00000010  00000+0  00000+0 0  9994
2 38740   0.0098  50.7660 0001279 132.1639 330.9960  1.00274736 50969
INTELSAT 21 (IS-21)     
1 38749U 12045A   26189.48801001  .00000000  00000+0  00000+0 0  9999
2 38749   0.0216  20.6157 0001707 116.4720 267.0313  1.00267746 50739
